{"type": "FeatureCollection", "features": [ {"type": "Feature", "properties": {"norad_id": 30481, "name": "FENGYUN 1C DEB", "group": "fengyun-1c-debris", "lat": 39.663496901045626, "lon": -5.137156950416393, "alt_km": 866.252323099674, "timestamp": "2025-12-10T11:33:53.661979+00:00", "meta": {"OBJECT_NAME": "FENGYUN 1C DEB", "OBJECT_ID": "1999-025AGT", "EPOCH": "2025-12-09T00:35:20.897952", "MEAN_MOTION": 14.39011649, "ECCENTRICITY": 0.02230769, "INCLINATION": 98.3367, "RA_OF_ASC_NODE": 0.4284, "ARG_OF_PERICENTER": 271.2114, "MEAN_ANOMALY": 141.9453, "EPHEMERIS_TYPE": 0, "CLASSIFICATION_TYPE": "U", "NORAD_CAT_ID": 30481, "ELEMENT_SET_NO": 999, "REV_AT_EPOCH": 98430, "BSTAR": 0.00073601294, "MEAN_MOTION_DOT": 2.987e-05, "MEAN_MOTION_DDOT": 0}, "tle": {"line1": "1 30481U 99025AGT 25343.02454743  .00002987  00000+0  73601-3 0  9992", "line2": "2 30481  98.3367   0.4284 0223076 271.2114 141.9453 14.39011649984309"}}, "geometry": {"type": "Point", "coordinates": [-5.137156950416393, 39.663496901045626]}}, {"type": "Feature", "properties": {"norad_id": 30486, "name": "FENGYUN 1C DEB", "group": "fengyun-1c-debris", "lat": 29.46720263174206, "lon": 13.00756936674968, "alt_km": 263.43140985195805, "timestamp": "2025-12-10T11:33:53.661990+00:00", "meta": {"OBJECT_NAME": "FENGYUN 1C DEB", "OBJECT_ID": "1999-025AGY", "EPOCH": "2025-12-10T00:58:10.064064", "MEAN_MOTION": 16.04515988, "ECCENTRICITY": 0.0012038, "INCLINATION": 98.7932, "RA_OF_ASC_NODE": 17.4416, "ARG_OF_PERICENTER": 209.881, "MEAN_ANOMALY": 150.178, "EPHEMERIS_TYPE": 0, "CLASSIFICATION_TYPE": "U", "NORAD_CAT_ID": 30486, "ELEMENT_SET_NO": 999, "REV_AT_EPOCH": 1711, "BSTAR": 0.003085, "MEAN_MOTION_DOT": 0.01963178, "MEAN_MOTION_DDOT": 0.0028697}, "tle": {"line1": "1 30486U 99025AGY 25344.04039426  .01963178  28697-2  30850-2 0  9999", "line2": "2 30486  98.7932  17.4416 0012038 209.8810 150.1780 16.04515988 17115"}}, "geometry": {"type": "Point", "coordinates": [13.00756936674968, 29.46720263174206]}}, {"type": "Feature", "properties": {"norad_id": 30489, "name": "FENGYUN 1C DEB", "group": "fengyun-1c-debris", "lat": 77.5929765209185, "lon": -43.14208336801288, "alt_km": 930.751622798135, "timestamp": "2025-12-10T11:33:53.662000+00:00", "meta": {"OBJECT_NAME": "FENGYUN 1C DEB", "OBJECT_ID": "1999-025AHB", "EPOCH": "2025-12-09T23:26:50.186400", "MEAN_MOTION": 14.15815267, "ECCENTRICITY": 0.0138938, "INCLINATION": 98.4687, "RA_OF_ASC_NODE": 359.0059, "ARG_OF_PERICENTER": 273.0619, "MEAN_ANOMALY": 115.5657, "EPHEMERIS_TYPE": 0, "CLASSIFICATION_TYPE": "U", "NORAD_CAT_ID": 30489, "ELEMENT_SET_NO": 999, "REV_AT_EPOCH": 97348, "BSTAR": 0.00040757, "MEAN_MOTION_DOT": 8.37e-06, "MEAN_MOTION_DDOT": 0}, "tle": {"line1": "1 30489U 99025AHB 25343.97696975  .00000837  00000+0  40757-3 0  9997", "line2": "2 30489  98.4687 359.0059 0138938 273.0619 115.5657 14.15815267973480"}}, "geometry": {"type": "Point", "coordinates": [-43.14208336801288, 77.5929765209185]}}, {"type": "Feature", "properties": {"norad_id": 30490, "name": "FENGYUN 1C DEB", "group": "fengyun-1c-debris", "lat": 46.174785057636555, "lon": 107.09009532950148, "alt_km": 472.903648854488, "timestamp": "2025-12-10T11:33:53.662020+00:00", "meta": {"OBJECT_NAME": "FENGYUN 1C DEB", "OBJECT_ID": "1999-025AHC", "EPOCH": "2025-12-10T01:55:41.765664", "MEAN_MOTION": 15.27629888, "ECCENTRICITY": 0.0048334, "INCLINATION": 98.3313, "RA_OF_ASC_NODE": 115.4241, "ARG_OF_PERICENTER": 128.7121, "MEAN_ANOMALY": 231.8452, "EPHEMERIS_TYPE": 0, "CLASSIFICATION_TYPE": "U", "NORAD_CAT_ID": 30490, "ELEMENT_SET_NO": 999, "REV_AT_EPOCH": 99455, "BSTAR": 0.0053062, "MEAN_MOTION_DOT": 0.00150965, "MEAN_MOTION_DDOT": 0}, "tle": {"line1": "1 30490U 99025AHC 25344.08034451  .00150965  00000+0  53062-2 0  9997", "line2": "2 30490  98.3313 115.4241 0048334 128.7121 231.8452 15.27629888994550"}}, "geometry": {"type": "Point", "coordinates": [107.09009532950148, 46.174785057636555]}}, {"type": "Feature", "properties": {"norad_id": 30492, "name": "FENGYUN 1C DEB", "group": "fengyun-1c-debris", "lat": -74.34805937756914, "lon": 129.38460528440058, "alt_km": 793.28734358356, "timestamp": "2025-12-10T11:33:53.662031+00:00", "meta": {"OBJECT_NAME": "FENGYUN 1C DEB", "OBJECT_ID": "1999-025AHE", "EPOCH": "2025-12-10T00:26:57.129792", "MEAN_MOTION": 14.51728245, "ECCENTRICITY": 0.009503, "INCLINATION": 102.3265, "RA_OF_ASC_NODE": 0.008, "ARG_OF_PERICENTER": 70.4495, "MEAN_ANOMALY": 290.6917, "EPHEMERIS_TYPE": 0, "CLASSIFICATION_TYPE": "U", "NORAD_CAT_ID": 30492, "ELEMENT_SET_NO": 999, "REV_AT_EPOCH": 96855, "BSTAR": 0.0043685, "MEAN_MOTION_DOT": 0.0001858, "MEAN_MOTION_DDOT": 0}, "tle": {"line1": "1 30492U 99025AHE 25344.01871678  .00018580  00000+0  43685-2 0  9998", "line2": "2 30492 102.3265   0.0080 0095030  70.4495 290.6917 14.51728245968559"}}, "geometry": {"type": "Point", "coordinates": [129.38460528440058, -74.34805937756914]}}, {"type": "Feature", "properties": {"norad_id": 30493, "name": "FENGYUN 1C DEB", "group": "fengyun-1c-debris", "lat": -17.115792396638717, "lon": 177.63739486588855, "alt_km": 987.0578752083993, "timestamp": "2025-12-10T11:33:53.662041+00:00", "meta": {"OBJECT_NAME": "FENGYUN 1C DEB", "OBJECT_ID": "1999-025AHF", "EPOCH": "2025-12-10T00:19:40.129824", "MEAN_MOTION": 13.92927153, "ECCENTRICITY": 0.0181467, "INCLINATION": 98.5713, "RA_OF_ASC_NODE": 174.5416, "ARG_OF_PERICENTER": 224.3523, "MEAN_ANOMALY": 290.051, "EPHEMERIS_TYPE": 0, "CLASSIFICATION_TYPE": "U", "NORAD_CAT_ID": 30493, "ELEMENT_SET_NO": 999, "REV_AT_EPOCH": 95057, "BSTAR": 0.0043918, "MEAN_MOTION_DOT": 6.489e-05, "MEAN_MOTION_DDOT": 0}, "tle": {"line1": "1 30493U 99025AHF 25344.01365891  .00006489  00000+0  43918-2 0  9998", "line2": "2 30493  98.5713 174.5416 0181467 224.3523 290.0510 13.92927153950575"}}, "geometry": {"type": "Point", "coordinates": [177.63739486588855, -17.115792396638717]}}, {"type": "Feature", "properties": {"norad_id": 30494, "name": "FENGYUN 1C DEB", "group": "fengyun-1c-debris", "lat": 10.26663493062718, "lon": 18.2084486462846, "alt_km": 1074.6481384232575, "timestamp": "2025-12-10T11:33:53.662052+00:00", "meta": {"OBJECT_NAME": "FENGYUN 1C DEB", "OBJECT_ID": "1999-025AHG", "EPOCH": "2025-12-09T21:35:10.042656", "MEAN_MOTION": 13.79357161, "ECCENTRICITY": 0.018577, "INCLINATION": 99.2827, "RA_OF_ASC_NODE": 19.335, "ARG_OF_PERICENTER": 229.7077, "MEAN_ANOMALY": 128.771, "EPHEMERIS_TYPE": 0, "CLASSIFICATION_TYPE": "U", "NORAD_CAT_ID": 30494, "ELEMENT_SET_NO": 999, "REV_AT_EPOCH": 94447, "BSTAR": 0.0019487, "MEAN_MOTION_DOT": 2.233e-05, "MEAN_MOTION_DDOT": 0}, "tle": {"line1": "1 30494U 99025AHG 25343.89942179  .00002233  00000+0  19487-2 0  9991", "line2": "2 30494  99.2827  19.3350 0185770 229.7077 128.7710 13.79357161944479"}}, "geometry": {"type": "Point", "coordinates": [18.2084486462846, 10.26663493062718]}}, {"type": "Feature", "properties": {"norad_id": 30495, "name": "FENGYUN 1C DEB", "group": "fengyun-1c-debris", "lat": -19.047314137493007, "lon": 77.28960307630764, "alt_km": 1104.0802945772703, "timestamp": "2025-12-10T11:33:53.662062+00:00", "meta": {"OBJECT_NAME": "FENGYUN 1C DEB", "OBJECT_ID": "1999-025AHH", "EPOCH": "2025-12-09T17:06:46.113408", "MEAN_MOTION": 12.94367969, "ECCENTRICITY": 0.0596928, "INCLINATION": 102.2604, "RA_OF_ASC_NODE": 72.1233, "ARG_OF_PERICENTER": 272.8427, "MEAN_ANOMALY": 80.4537, "EPHEMERIS_TYPE": 0, "CLASSIFICATION_TYPE": "U", "NORAD_CAT_ID": 30495, "ELEMENT_SET_NO": 999, "REV_AT_EPOCH": 88634, "BSTAR": 0.0052913, "MEAN_MOTION_DOT": 3.256e-05, "MEAN_MOTION_DDOT": 0}, "tle": {"line1": "1 30495U 99025AHH 25343.71303372  .00003256  00000+0  52913-2 0  9996", "line2": "2 30495 102.2604  72.1233 0596928 272.8427  80.4537 12.94367969886349"}}, "geometry": {"type": "Point", "coordinates": [77.28960307630764, -19.047314137493007]}}, {"type": "Feature", "properties": {"norad_id": 30496, "name": "FENGYUN 1C DEB", "group": "fengyun-1c-debris", "lat": 24.337002901904523, "lon": -113.95418093525886, "alt_km": 567.177027607886, "timestamp": "2025-12-10T11:33:53.662072+00:00", "meta": {"OBJECT_NAME": "FENGYUN 1C DEB", "OBJECT_ID": "1999-025AHJ", "EPOCH": "2025-12-09T16:10:07.089888", "MEAN_MOTION": 14.94191371, "ECCENTRICITY": 0.0130233, "INCLINATION": 98.7824, "RA_OF_ASC_NODE": 249.1522, "ARG_OF_PERICENTER": 107.26, "MEAN_ANOMALY": 254.2917, "EPHEMERIS_TYPE": 0, "CLASSIFICATION_TYPE": "U", "NORAD_CAT_ID": 30496, "ELEMENT_SET_NO": 999, "REV_AT_EPOCH": 1098, "BSTAR": 0.00073139, "MEAN_MOTION_DOT": 9.199e-05, "MEAN_MOTION_DDOT": 0}, "tle": {"line1": "1 30496U 99025AHJ 25343.67369317  .00009199  00000+0  73139-3 0  9999", "line2": "2 30496  98.7824 249.1522 0130233 107.2600 254.2917 14.94191371 10983"}}, "geometry": {"type": "Point", "coordinates": [-113.95418093525886, 24.337002901904523]}}, {"type": "Feature", "properties": {"norad_id": 30498, "name": "FENGYUN 1C DEB", "group": "fengyun-1c-debris", "lat": 37.42472487319297, "lon": -137.28412738777735, "alt_km": 798.602296972409, "timestamp": "2025-12-10T11:33:53.662082+00:00", "meta": {"OBJECT_NAME": "FENGYUN 1C DEB", "OBJECT_ID": "1999-025AHL", "EPOCH": "2025-12-09T15:07:02.947008", "MEAN_MOTION": 14.06034142, "ECCENTRICITY": 0.0104845, "INCLINATION": 99.2367, "RA_OF_ASC_NODE": 34.694, "ARG_OF_PERICENTER": 164.2282, "MEAN_ANOMALY": 347.9716, "EPHEMERIS_TYPE": 0, "CLASSIFICATION_TYPE": "U", "NORAD_CAT_ID": 30498, "ELEMENT_SET_NO": 999, "REV_AT_EPOCH": 95725, "BSTAR": 0.0025324, "MEAN_MOTION_DOT": 4.322e-05, "MEAN_MOTION_DDOT": 0}, "tle": {"line1": "1 30498U 99025AHL 25343.62989522  .00004322  00000+0  25324-2 0  9997", "line2": "2 30498  99.2367  34.6940 0104845 164.2282 347.9716 14.06034142957255"}}, "geometry": {"type": "Point", "coordinates": [-137.28412738777735, 37.42472487319297]}}]}